{
  "type": "FeatureCollection",
  "features": [
    {
      "type": "Feature",
      "properties": {
        "norad_id": 66501,
        "name": "STARLINK-35897",
        "group": "last-30-days",
        "lat": 40.20264002021604,
        "lon": -120.80173426650697,
        "alt_km": 360.8023183843625,
        "timestamp": "2025-12-04T09:47:36.302409+00:00",
        "meta_object_name": "STARLINK-35897",
        "meta_object_id": "2025-263S",
        "meta_epoch": "2025-12-04T04:00:03.000096",
        "meta_mean_motion": 15.68545012,
        "meta_eccentricity": 0.0001428,
        "meta_inclination": 42.9993,
        "meta_ra_of_asc_node": 175.5555,
        "meta_arg_of_pericenter": 274.1728,
        "meta_mean_anomaly": 232.9935,
        "meta_ephemeris_type": 0,
        "meta_classification_type": "U",
        "meta_norad_cat_id": 66501,
        "meta_element_set_no": 999,
        "meta_rev_at_epoch": 425,
        "meta_bstar": -0.019121,
        "meta_mean_motion_dot": -0.01968989,
        "meta_mean_motion_ddot": 0,
        "tle_line1": "1 66501U 25263S   25338.16670139 -.01968989  00000+0 -19121-1 0  9996",
        "tle_line2": "2 66501  42.9993 175.5555 0001428 274.1728 232.9935 15.68545012  4256"
      },
      "geometry": {
        "type": "Point",
        "coordinates": [
          -120.80173426650697,
          40.20264002021604
        ]
      }
    },
    {
      "type": "Feature",
      "properties": {
        "norad_id": 66502,
        "name": "STARLINK-35922",
        "group": "last-30-days",
        "lat": 41.62484169334862,
        "lon": -113.42222862436847,
        "alt_km": 360.75996924033734,
        "timestamp": "2025-12-04T09:47:36.302422+00:00",
        "meta_object_name": "STARLINK-35922",
        "meta_object_id": "2025-263T",
        "meta_epoch": "2025-12-04T04:00:03.000096",
        "meta_mean_motion": 15.68540198,
        "meta_eccentricity": 0.0001602,
        "meta_inclination": 42.9991,
        "meta_ra_of_asc_node": 175.5405,
        "meta_arg_of_pericenter": 274.0347,
        "meta_mean_anomaly": 238.8941,
        "meta_ephemeris_type": 0,
        "meta_classification_type": "U",
        "meta_norad_cat_id": 66502,
        "meta_element_set_no": 999,
        "meta_rev_at_epoch": 425,
        "meta_bstar": -0.019165,
        "meta_mean_motion_dot": -0.0197272,
        "meta_mean_motion_ddot": 0,
        "tle_line1": "1 66502U 25263T   25338.16670139 -.01972720  00000+0 -19165-1 0  9993",
        "tle_line2": "2 66502  42.9991 175.5405 0001602 274.0347 238.8941 15.68540198  4251"
      },
      "geometry": {
        "type": "Point",
        "coordinates": [
          -113.42222862436847,
          41.62484169334862
        ]
      }
    },
    {
      "type": "Feature",
      "properties": {
        "norad_id": 66503,
        "name": "STARLINK-35917",
        "group": "last-30-days",
        "lat": 42.29970615537234,
        "lon": -108.36100046535931,
        "alt_km": 360.47556310610616,
        "timestamp": "2025-12-04T09:47:36.302432+00:00",
        "meta_object_name": "STARLINK-35917",
        "meta_object_id": "2025-263U",
        "meta_epoch": "2025-12-03T22:00:03.000096",
        "meta_mean_motion": 15.69577615,
        "meta_eccentricity": 0.00012523,
        "meta_inclination": 42.9992,
        "meta_ra_of_asc_node": 177.0362,
        "meta_arg_of_pericenter": 273.8246,
        "meta_mean_anomaly": 269.0733,
        "meta_ephemeris_type": 0,
        "meta_classification_type": "U",
        "meta_norad_cat_id": 66503,
        "meta_element_set_no": 999,
        "meta_rev_at_epoch": 421,
        "meta_bstar": -0.017991343,
        "meta_mean_motion_dot": -0.01938256,
        "meta_mean_motion_ddot": 0,
        "tle_line1": "1 66503U 25263U   25337.91670139 -.01938256  00000+0 -17991-1 0  9997",
        "tle_line2": "2 66503  42.9992 177.0362 0001252 273.8246 269.0733 15.69577615  4214"
      },
      "geometry": {
        "type": "Point",
        "coordinates": [
          -108.36100046535931,
          42.29970615537234
        ]
      }
    },
    {
      "type": "Feature",
      "properties": {
        "norad_id": 66504,
        "name": "STARLINK-35916",
        "group": "last-30-days",
        "lat": 6.712395843165121,
        "lon": -12.504718527312221,
        "alt_km": 414.40366741865273,
        "timestamp": "2025-12-04T09:47:36.302444+00:00",
        "meta_object_name": "STARLINK-35916",
        "meta_object_id": "2025-263V",
        "meta_epoch": "2025-12-04T04:00:03.000096",
        "meta_mean_motion": 15.50596003,
        "meta_eccentricity": 0.0002342,
        "meta_inclination": 42.9987,
        "meta_ra_of_asc_node": 176.1636,
        "meta_arg_of_pericenter": 278.5513,
        "meta_mean_anomaly": 342.6116,
        "meta_ephemeris_type": 0,
        "meta_classification_type": "U",
        "meta_norad_cat_id": 66504,
        "meta_element_set_no": 999,
        "meta_rev_at_epoch": 425,
        "meta_bstar": -0.00019543,
        "meta_mean_motion_dot": -0.00011798,
        "meta_mean_motion_ddot": 0,
        "tle_line1": "1 66504U 25263V   25338.16670139 -.00011798  00000+0 -19543-3 0  9995",
        "tle_line2": "2 66504  42.9987 176.1636 0002342 278.5513 342.6116 15.50596003  4252"
      },
      "geometry": {
        "type": "Point",
        "coordinates": [
          -12.504718527312221,
          6.712395843165121
        ]
      }
    },
    {
      "type": "Feature",
      "properties": {
        "norad_id": 66505,
        "name": "STARLINK-34766",
        "group": "last-30-days",
        "lat": 40.72762496995362,
        "lon": -118.38440244669691,
        "alt_km": 360.69105796038184,
        "timestamp": "2025-12-04T09:47:36.302454+00:00",
        "meta_object_name": "STARLINK-34766",
        "meta_object_id": "2025-263W",
        "meta_epoch": "2025-12-04T04:00:03.000096",
        "meta_mean_motion": 15.68556352,
        "meta_eccentricity": 0.0001338,
        "meta_inclination": 42.9992,
        "meta_ra_of_asc_node": 175.5502,
        "meta_arg_of_pericenter": 271.1541,
        "meta_mean_anomaly": 237.9211,
        "meta_ephemeris_type": 0,
        "meta_classification_type": "U",
        "meta_norad_cat_id": 66505,
        "meta_element_set_no": 999,
        "meta_rev_at_epoch": 425,
        "meta_bstar": -0.019243,
        "meta_mean_motion_dot": -0.01980828,
        "meta_mean_motion_ddot": 0,
        "tle_line1": "1 66505U 25263W   25338.16670139 -.01980828  00000+0 -19243-1 0  9991",
        "tle_line2": "2 66505  42.9992 175.5502 0001338 271.1541 237.9211 15.68556352  4252"
      },
      "geometry": {
        "type": "Point",
        "coordinates": [
          -118.38440244669691,
          40.72762496995362
        ]
      }
    },
    {
      "type": "Feature",
      "properties": {
        "norad_id": 66506,
        "name": "STARLINK-34765",
        "group": "last-30-days",
        "lat": 41.201485498632906,
        "lon": -115.92809501808559,
        "alt_km": 360.6852213786751,
        "timestamp": "2025-12-04T09:47:36.302464+00:00",
        "meta_object_name": "STARLINK-34765",
        "meta_object_id": "2025-263X",
        "meta_epoch": "2025-12-04T04:00:03.000096",
        "meta_mean_motion": 15.68556184,
        "meta_eccentricity": 0.0001393,
        "meta_inclination": 42.9992,
        "meta_ra_of_asc_node": 175.5461,
        "meta_arg_of_pericenter": 267.8151,
        "meta_mean_anomaly": 243.1763,
        "meta_ephemeris_type": 0,
        "meta_classification_type": "U",
        "meta_norad_cat_id": 66506,
        "meta_element_set_no": 999,
        "meta_rev_at_epoch": 425,
        "meta_bstar": -0.019238,
        "meta_mean_motion_dot": -0.01980415,
        "meta_mean_motion_ddot": 0,
        "tle_line1": "1 66506U 25263X   25338.16670139 -.01980415  00000+0 -19238-1 0  9998",
        "tle_line2": "2 66506  42.9992 175.5461 0001393 267.8151 243.1763 15.68556184  4251"
      },
      "geometry": {
        "type": "Point",
        "coordinates": [
          -115.92809501808559,
          41.201485498632906
        ]
      }
    },
    {
      "type": "Feature",
      "properties": {
        "norad_id": 66507,
        "name": "STARLINK-34767",
        "group": "last-30-days",
        "lat": 41.989518768630234,
        "lon": -110.91076318263924,
        "alt_km": 360.5977453258256,
        "timestamp": "2025-12-04T09:47:36.302474+00:00",
        "meta_object_name": "STARLINK-34767",
        "meta_object_id": "2025-263Y",
        "meta_epoch": "2025-12-04T04:00:03.000096",
        "meta_mean_motion": 15.68555535,
        "meta_eccentricity": 0.0001467,
        "meta_inclination": 42.9991,
        "meta_ra_of_asc_node": 175.5353,
        "meta_arg_of_pericenter": 274.0493,
        "meta_mean_anomaly": 240.7775,
        "meta_ephemeris_type": 0,
        "meta_classification_type": "U",
        "meta_norad_cat_id": 66507,
        "meta_element_set_no": 999,
        "meta_rev_at_epoch": 425,
        "meta_bstar": -0.019236,
        "meta_mean_motion_dot": -0.01980172,
        "meta_mean_motion_ddot": 0,
        "tle_line1": "1 66507U 25263Y   25338.16670139 -.01980172  00000+0 -19236-1 0  9997",
        "tle_line2": "2 66507  42.9991 175.5353 0001467 274.0493 240.7775 15.68555535  4257"
      },
      "geometry": {
        "type": "Point",
        "coordinates": [
          -110.91076318263924,
          41.989518768630234
        ]
      }
    }
  ]
}